ORBCOMM FM20            
1 25416U 98046D   25352.50785781  .00000644  00000+0  25927-3 0  9994
2 25416  44.9951  28.0941 0002076 237.5027 122.5621 14.37676104430787
ORBCOMM FM16            
1 25417U 98046E   25352.55389848  .00000911  00000+0  33467-3 0  9999
2 25417  44.9949  16.9223 0003882 181.4819 178.6018 14.39546048430817
ORBCOMM FM15            
1 25418U 98046F   25352.50726002  .00000872  00000+0  32463-3 0  9993
2 25418  44.9978  22.8518 0003756 183.1633 176.9193 14.39175118430794
ORBCOMM FM14            
1 25419U 98046G   25352.26757126  .00000954  00000+0  34775-3 0  9997
2 25419  44.9968  21.6654 0002561 193.4601 166.6180 14.39594094430738
ORBCOMM FM13            
1 25420U 98046H   25352.47900730  .00000749  00000+0  29085-3 0  9993
2 25420  44.9983  30.5083 0003814 150.5960 209.5104 14.38210101429763
ORBCOMM FM21            
1 25475U 98053A   25352.60076710  .00000685  00000+0  27226-3 0  9992
2 25475  45.0074 115.8982 0001341 134.5119 225.5839 14.37806369423787
ORBCOMM FM22            
1 25476U 98053B   25352.63566889  .00000816  00000+0  30792-3 0  9995
2 25476  45.0069 109.0150 0002429 102.1200 257.9921 14.38979549423833
ORBCOMM FM23            
1 25477U 98053C   25352.57493842  .00000749  00000+0  29183-3 0  9994
2 25477  45.0073 117.8501 0001863 103.0950 257.0107 14.38044386423939
